HST                     
1 20580U 90037B   26165.14417512  .00006344  00000+0  19999-3 0  9995
2 20580  28.4715 101.3706 0001912 110.8714 249.2086 15.30716351788104
POLAR                   
1 23802U 96013A   26164.95607492  .00000147  00000+0  00000+0 0  9995
2 23802  79.8497 227.0901 6467269 209.1905  89.6377  1.29846142144813
SWAS                    
1 25560U 98071A   26165.56405232  .00003064  00000+0  19650-3 0  9996
2 25560  69.8959 234.2840 0008700 262.9017  97.1158 15.09613492496876
CXO                     
1 25867U 99040B   26166.73124906  .00000579  00000+0  00000+0 0  9992
2 25867  56.1776 116.6293 7842889 310.3072   0.0447  0.37804362 17312
XMM-NEWTON              
1 25989U 99066A   26167.35230823  .00000036  00000+0  00000+0 0  9998
2 25989  64.4922 282.9960 4674559  64.9442   0.1261  0.50126459 23004
TERRA                   
1 25994U 99068A   26165.49902450  .00000343  00000+0  78741-4 0  9994
2 25994  97.9457 215.1518 0001369 199.3330 302.4932 14.61101134409213
CLUSTER II-FM7 (SAMBA)  
1 26410U 00041A   26168.13893489  .00013374  00000+0  00000+0 0  9992
2 26410 149.9162  50.9861 9054057 268.1289 359.6411  0.44866443 20305
CLUSTER II-FM8 (TANGO)  
1 26464U 00045B   26163.93604630  .00006612  00000+0  00000+0 0  9993
2 26464 150.1471  51.3037 9053900 268.2440   3.0100  0.44405929 20298
ODIN                    
1 26702U 01007A   26165.49014216  .00172083  00000+0  11407-2 0  9997
2 26702  97.3842 206.2610 0006746 145.7949 214.3752 15.74977576388978
TIMED                   
1 26998U 01055B   26165.53268880  .00001065  00000+0  10025-3 0  9997
2 26998  74.0674 240.3632 0000976 340.6067  19.5080 14.95290180330426
CORIOLIS                
1 27640U 03001A   26165.58997341  .00000077  00000+0  56776-4 0  9997
2 27640  98.7125 172.5144 0013228 216.6788 143.3484 14.19944124213856
SORCE                   
1 27651U 03004A   26165.61581684  .00002665  00000+0  20138-3 0  9992
2 27651  39.9911 276.3489 0016788  29.7405 330.4341 15.03701712271512
MOST                    
1 27843U 03031D   26165.53620848  .00000052  00000+0  44066-4 0  9997
2 27843  98.7045 173.2992 0008696 259.1115 100.9084 14.21321972190335
SCISAT 1                
1 27858U 03036A   26165.45691817  .00000438  00000+0  60594-4 0  9995
2 27858  73.9285 176.7676 0008610 246.3463 113.6810 14.81445218231047
SWIFT                   
1 28485U 04047A   26164.81561905  .00048901  00000+0  41135-3 0  9994
2 28485  20.5521 210.9067 0001739 231.5121 128.5169 15.68026337186338
HINODE (SOLAR-B)        
1 29479U 06041A   26165.52822747  .00000600  00000+0  11146-3 0  9990
2 29479  98.0549 181.7200 0016091 298.9740  60.9852 14.68619784 54488
SHIJIAN-6 02A (SJ-6 02A)
1 29505U 06046A   26165.58493944  .00009948  00000+0  50767-3 0  9990
2 29505  97.6362 206.6320 0004221 131.1428 229.0170 15.16922895 71876
SHIJIAN-6 02B (SJ-6 02B)
1 29506U 06046B   26165.61380242  .00001540  00000+0  12396-3 0  9997
2 29506  97.7161 194.6882 0015249  67.6691 292.6148 15.01372344 70356
FGRST (GLAST)           
1 33053U 08029A   26165.54396426  .00002833  00000+0  10033-3 0  9997
2 33053  25.5810 222.8369 0007606 296.5938  63.3821 15.23937385995439
SDO                     
1 36395U 10005A   26165.43714222 -.00000094  00000+0  00000+0 0  9999
2 36395  34.6460  86.3840 0001714  49.5303 182.1298  1.00269990 60033
CRYOSAT 2               
1 36508U 10013A   26165.60038051  .00000170  00000+0  41475-4 0  9992
2 36508  92.0353 276.6728 0002171  88.5218 271.6238 14.51898281857700
X-SAT                   
1 37389U 11015C   26165.62792831  .00000165  00000+0  87875-4 0  9996
2 37389  98.3501 142.7730 0014171 356.0775   4.0292 14.25205684787319
GCOM-W1 (SHIZUKU)       
1 38337U 12025A   26165.58202922  .00000399  00000+0  98558-4 0  9993
2 38337  98.2022 106.1771 0001815  76.9307  96.0438 14.57122441748650
NUSTAR                  
1 38358U 12031A   26165.66668981  .00007521  00000+0  41119-3 0  9997
2 38358   6.0272  53.0394 0006894  65.6943 334.8378 15.08782063  1300
NEOSSAT                 
1 39089U 13009D   26165.49174003  .00000129  00000+0  59314-4 0  9997
2 39089  98.4176 345.5885 0009830 252.8028 107.2082 14.35825559696357
BRITE-AUSTRIA           
1 39091U 13009F   26165.49170768  .00000150  00000+0  65713-4 0  9998
2 39091  98.3993 344.9942 0009057 245.5657 114.4585 14.36541132696666
IRIS                    
1 39197U 13033A   26165.53857985  .00000930  00000+0  11261-3 0  9994
2 39197  97.9331   4.8240 0023724 330.7890  29.1997 14.85880593699988
HISAKI (SPRINT-A)       
1 39253U 13049A   26165.47734709  .00000136  00000+0  98100-4 0  9991
2 39253  29.7188 233.7905 0136863 354.8881   5.0294 13.55544513631053
CASSIOPE                
1 39265U 13055A   26165.47204066  .00047970 -45400-6  52514-3 0  9995
2 39265  80.9158  70.0186 0293684  71.5638 291.7279 15.24952306667252
STSAT-3                 
1 39422U 13066G   26165.64909032  .00003191  00000+0  24298-3 0  9990
2 39422  97.6213 135.5779 0011169  51.6066 308.6160 15.02744094683826
SWARM B                 
1 39451U 13067A   26165.58062056  .00003272  00000+0  11665-3 0  9996
2 39451  87.7433 343.1088 0003348  87.3469 272.8163 15.28537303682842
